     3.01           N: GNSS NAV DATA    M: Mixed            RINEX VERSION / TYPE
RTKCONV demo5 b34c                      20210805 004152 UTC PGM / RUN BY / DATE 
format: u-blox UBX                                          COMMENT             
log: C:\Users\YX\Desktop\SAVE2021_8_5_8-38-49.DAT           COMMENT             
                                                            END OF HEADER       
